H-2A R/B                
1 28932U 06002B   26071.11660164  .00009727  00000+0  48653-3 0  9996
2 28932  98.2411 218.3490 0051928 232.6571 126.9924 15.16477919 94803
RESURS-DK 1             
1 29228U 06021A   26071.18040981  .00003892  00000+0  22745-3 0  9993
2 29228  69.9325 230.5792 0001644 160.8628 199.2600 15.12764715 87903
CZ-4B R/B               
1 29507U 06046C   26071.11588416  .00004686  00000+0  23816-3 0  9995
2 29507  97.5596 116.0188 0031680 258.4841 101.2834 15.16932678 60419
COSMO-SKYMED 1          
1 31598U 07023A   26071.13836424  .00003976  00000+0  35466-3 0  9996
2 31598  97.8879 262.1896 0001468  98.0922 262.0465 14.96556565 15271
COSMOS 2428             
1 31792U 07029A   26071.15413729  .00000034  00000+0  43881-4 0  9992
2 31792  70.9436 198.1704 0009209 274.6390  85.3680 14.12946644964442
SL-16 R/B               
1 31793U 07029B   26070.98949723  .00000135  00000+0  94790-4 0  9998
2 31793  70.9759 167.5509 0002263 276.0417 257.0523 14.14833993965699
KORONAS-FOTON           
1 33504U 09003A   26071.03357247  .00009856  00000+0  21956-3 0  9997
2 33504  82.4278 273.4409 0011398 141.8970 218.3085 15.43371632946101
CZ-2C R/B               
1 37731U 11030B   26070.84096852  .00001963  00000+0  25311-3 0  9996
2 37731  97.8542  28.0609 0052201 345.0697  75.0266 14.81232238790418
H-2A R/B                
1 38341U 12025E   26070.87009374  .00003519  00000+0  32069-3 0  9992
2 38341  98.4739  38.0911 0043203 307.1184  52.6090 14.95189354748548
SHIJIAN-16 (SJ-16)      
1 39358U 13057A   26071.24354304  .00004046  00000+0  39719-3 0  9990
2 39358  74.9730 180.2534 0015448 105.8171 254.4722 14.92362839671881
SL-4 R/B                
1 39679U 14021B   26070.96624170  .00015383  00000+0  33848-3 0  9990
2 39679  51.6083 326.1718 0097301 111.2955 249.8451 15.39266038656622
