CCSDS_OMM_VERS = 2.0
CREATION_DATE  = 
ORIGINATOR     = 

OBJECT_NAME    = H-2A R/B
OBJECT_ID      = 2006-002B
CENTER_NAME    = EARTH
REF_FRAME      = TEME
TIME_SYSTEM    = UTC
MEAN_ELEMENT_THEORY = SGP/SGP4

EPOCH          = 2026-03-12T02:47:54.381696
MEAN_MOTION    = 15.16477919
ECCENTRICITY   = .0051928
INCLINATION    = 98.2411
RA_OF_ASC_NODE = 218.3490
ARG_OF_PERICENTER = 232.6571
MEAN_ANOMALY   = 126.9924

EPHEMERIS_TYPE = 0
CLASSIFICATION_TYPE = U
NORAD_CAT_ID   = 28932
ELEMENT_SET_NO = 999
REV_AT_EPOCH   = 9480
BSTAR          = .48653E-3
MEAN_MOTION_DOT = .9727E-4
MEAN_MOTION_DDOT = 0

CCSDS_OMM_VERS = 2.0
CREATION_DATE  = 
ORIGINATOR     = 

OBJECT_NAME    = RESURS-DK 1
OBJECT_ID      = 2006-021A
CENTER_NAME    = EARTH
REF_FRAME      = TEME
TIME_SYSTEM    = UTC
MEAN_ELEMENT_THEORY = SGP/SGP4

EPOCH          = 2026-03-12T04:19:47.407584
MEAN_MOTION    = 15.12764715
ECCENTRICITY   = .0001644
INCLINATION    = 69.9325
RA_OF_ASC_NODE = 230.5792
ARG_OF_PERICENTER = 160.8628
MEAN_ANOMALY   = 199.2600

EPHEMERIS_TYPE = 0
CLASSIFICATION_TYPE = U
NORAD_CAT_ID   = 29228
ELEMENT_SET_NO = 999
REV_AT_EPOCH   = 8790
BSTAR          = .22745E-3
MEAN_MOTION_DOT = .3892E-4
MEAN_MOTION_DDOT = 0

CCSDS_OMM_VERS = 2.0
CREATION_DATE  = 
ORIGINATOR     = 

OBJECT_NAME    = CZ-4B R/B
OBJECT_ID      = 2006-046C
CENTER_NAME    = EARTH
REF_FRAME      = TEME
TIME_SYSTEM    = UTC
MEAN_ELEMENT_THEORY = SGP/SGP4

EPOCH          = 2026-03-12T02:46:52.391424
MEAN_MOTION    = 15.16932678
ECCENTRICITY   = .003168
INCLINATION    = 97.5596
RA_OF_ASC_NODE = 116.0188
ARG_OF_PERICENTER = 258.4841
MEAN_ANOMALY   = 101.2834

EPHEMERIS_TYPE = 0
CLASSIFICATION_TYPE = U
NORAD_CAT_ID   = 29507
ELEMENT_SET_NO = 999
REV_AT_EPOCH   = 6041
BSTAR          = .23816E-3
MEAN_MOTION_DOT = .4686E-4
MEAN_MOTION_DDOT = 0

CCSDS_OMM_VERS = 2.0
CREATION_DATE  = 
ORIGINATOR     = 

OBJECT_NAME    = COSMO-SKYMED 1
OBJECT_ID      = 2007-023A
CENTER_NAME    = EARTH
REF_FRAME      = TEME
TIME_SYSTEM    = UTC
MEAN_ELEMENT_THEORY = SGP/SGP4

EPOCH          = 2026-03-12T03:19:14.670336
MEAN_MOTION    = 14.96556565
ECCENTRICITY   = .0001468
INCLINATION    = 97.8879
RA_OF_ASC_NODE = 262.1896
ARG_OF_PERICENTER = 98.0922
MEAN_ANOMALY   = 262.0465

EPHEMERIS_TYPE = 0
CLASSIFICATION_TYPE = U
NORAD_CAT_ID   = 31598
ELEMENT_SET_NO = 999
REV_AT_EPOCH   = 1527
BSTAR          = .35466E-3
MEAN_MOTION_DOT = .3976E-4
MEAN_MOTION_DDOT = 0

CCSDS_OMM_VERS = 2.0
CREATION_DATE  = 
ORIGINATOR     = 

OBJECT_NAME    = COSMOS 2428
OBJECT_ID      = 2007-029A
CENTER_NAME    = EARTH
REF_FRAME      = TEME
TIME_SYSTEM    = UTC
MEAN_ELEMENT_THEORY = SGP/SGP4

EPOCH          = 2026-03-12T03:41:57.461856
MEAN_MOTION    = 14.12946644
ECCENTRICITY   = .0009209
INCLINATION    = 70.9436
RA_OF_ASC_NODE = 198.1704
ARG_OF_PERICENTER = 274.6390
MEAN_ANOMALY   = 85.3680

EPHEMERIS_TYPE = 0
CLASSIFICATION_TYPE = U
NORAD_CAT_ID   = 31792
ELEMENT_SET_NO = 999
REV_AT_EPOCH   = 96444
BSTAR          = .43881E-4
MEAN_MOTION_DOT = .34E-6
MEAN_MOTION_DDOT = 0

CCSDS_OMM_VERS = 2.0
CREATION_DATE  = 
ORIGINATOR     = 

OBJECT_NAME    = SL-16 R/B
OBJECT_ID      = 2007-029B
CENTER_NAME    = EARTH
REF_FRAME      = TEME
TIME_SYSTEM    = UTC
MEAN_ELEMENT_THEORY = SGP/SGP4

EPOCH          = 2026-03-11T23:44:52.560672
MEAN_MOTION    = 14.14833993
ECCENTRICITY   = .0002263
INCLINATION    = 70.9759
RA_OF_ASC_NODE = 167.5509
ARG_OF_PERICENTER = 276.0417
MEAN_ANOMALY   = 257.0523

EPHEMERIS_TYPE = 0
CLASSIFICATION_TYPE = U
NORAD_CAT_ID   = 31793
ELEMENT_SET_NO = 999
REV_AT_EPOCH   = 96569
BSTAR          = .9479E-4
MEAN_MOTION_DOT = .135E-5
MEAN_MOTION_DDOT = 0

CCSDS_OMM_VERS = 2.0
CREATION_DATE  = 
ORIGINATOR     = 

OBJECT_NAME    = KORONAS-FOTON
OBJECT_ID      = 2009-003A
CENTER_NAME    = EARTH
REF_FRAME      = TEME
TIME_SYSTEM    = UTC
MEAN_ELEMENT_THEORY = SGP/SGP4

EPOCH          = 2026-03-12T00:48:20.661408
MEAN_MOTION    = 15.43371632
ECCENTRICITY   = .0011398
INCLINATION    = 82.4278
RA_OF_ASC_NODE = 273.4409
ARG_OF_PERICENTER = 141.8970
MEAN_ANOMALY   = 218.3085

EPHEMERIS_TYPE = 0
CLASSIFICATION_TYPE = U
NORAD_CAT_ID   = 33504
ELEMENT_SET_NO = 999
REV_AT_EPOCH   = 94610
BSTAR          = .21956E-3
MEAN_MOTION_DOT = .9856E-4
MEAN_MOTION_DDOT = 0

CCSDS_OMM_VERS = 2.0
CREATION_DATE  = 
ORIGINATOR     = 

OBJECT_NAME    = CZ-2C R/B
OBJECT_ID      = 2011-030B
CENTER_NAME    = EARTH
REF_FRAME      = TEME
TIME_SYSTEM    = UTC
MEAN_ELEMENT_THEORY = SGP/SGP4

EPOCH          = 2026-03-11T20:10:59.680128
MEAN_MOTION    = 14.81232238
ECCENTRICITY   = .00522012
INCLINATION    = 97.8542
RA_OF_ASC_NODE = 28.0609
ARG_OF_PERICENTER = 345.0697
MEAN_ANOMALY   = 75.0266

EPHEMERIS_TYPE = 0
CLASSIFICATION_TYPE = U
NORAD_CAT_ID   = 37731
ELEMENT_SET_NO = 999
REV_AT_EPOCH   = 79041
BSTAR          = .2531128E-3
MEAN_MOTION_DOT = .1963E-4
MEAN_MOTION_DDOT = 0

CCSDS_OMM_VERS = 2.0
CREATION_DATE  = 
ORIGINATOR     = 

OBJECT_NAME    = H-2A R/B
OBJECT_ID      = 2012-025E
CENTER_NAME    = EARTH
REF_FRAME      = TEME
TIME_SYSTEM    = UTC
MEAN_ELEMENT_THEORY = SGP/SGP4

EPOCH          = 2026-03-11T20:52:56.099136
MEAN_MOTION    = 14.95189354
ECCENTRICITY   = .00432038
INCLINATION    = 98.4739
RA_OF_ASC_NODE = 38.0911
ARG_OF_PERICENTER = 307.1184
MEAN_ANOMALY   = 52.6090

EPHEMERIS_TYPE = 0
CLASSIFICATION_TYPE = U
NORAD_CAT_ID   = 38341
ELEMENT_SET_NO = 999
REV_AT_EPOCH   = 74854
BSTAR          = .32068932E-3
MEAN_MOTION_DOT = .3519E-4
MEAN_MOTION_DDOT = 0

CCSDS_OMM_VERS = 2.0
CREATION_DATE  = 
ORIGINATOR     = 

OBJECT_NAME    = SHIJIAN-16 (SJ-16)
OBJECT_ID      = 2013-057A
CENTER_NAME    = EARTH
REF_FRAME      = TEME
TIME_SYSTEM    = UTC
MEAN_ELEMENT_THEORY = SGP/SGP4

EPOCH          = 2026-03-12T05:50:42.118656
MEAN_MOTION    = 14.92362839
ECCENTRICITY   = .0015448
INCLINATION    = 74.9730
RA_OF_ASC_NODE = 180.2534
ARG_OF_PERICENTER = 105.8171
MEAN_ANOMALY   = 254.4722

EPHEMERIS_TYPE = 0
CLASSIFICATION_TYPE = U
NORAD_CAT_ID   = 39358
ELEMENT_SET_NO = 999
REV_AT_EPOCH   = 67188
BSTAR          = .39719E-3
MEAN_MOTION_DOT = .4046E-4
MEAN_MOTION_DDOT = 0

CCSDS_OMM_VERS = 2.0
CREATION_DATE  = 
ORIGINATOR     = 

OBJECT_NAME    = SL-4 R/B
OBJECT_ID      = 2014-021B
CENTER_NAME    = EARTH
REF_FRAME      = TEME
TIME_SYSTEM    = UTC
MEAN_ELEMENT_THEORY = SGP/SGP4

EPOCH          = 2026-03-11T23:11:23.282880
MEAN_MOTION    = 15.39266038
ECCENTRICITY   = .0097301
INCLINATION    = 51.6083
RA_OF_ASC_NODE = 326.1718
ARG_OF_PERICENTER = 111.2955
MEAN_ANOMALY   = 249.8451

EPHEMERIS_TYPE = 0
CLASSIFICATION_TYPE = U
NORAD_CAT_ID   = 39679
ELEMENT_SET_NO = 999
REV_AT_EPOCH   = 65662
BSTAR          = .33848E-3
MEAN_MOTION_DOT = .15383E-3
MEAN_MOTION_DDOT = 0

